IRIDIUM 7               
1 24793U 97020B   25361.26410027  .00000493  00000+0  16252-3 0  9996
2 24793  86.3959  96.0070 0002042 105.3962 254.7461 14.36118492499609
IRIDIUM 4               
1 24796U 97020E   25361.26564477  .00000502  00000+0  16270-3 0  9999
2 24796  86.3953  92.7533 0002013  98.7826 261.3599 14.37024772500196
IRIDIUM 16              
1 24841U 97030F   25361.32501518  .00000619  00000+0  19471-3 0  9990
2 24841  86.4047 124.1877 0003718 124.1793 235.9758 14.38902966494774
IRIDIUM 911             
1 24842U 97030G   25361.08999651  .00000848  00000+0  22320-3 0  9994
2 24842  86.4471 122.8431 0014655 166.4355 193.7245 14.47913654502994
IRIDIUM 17              
1 24870U 97034B   25361.15103809  .00000587  00000+0  18752-3 0  9993
2 24870  86.3980 153.6796 0003666  96.8058 263.3557 14.38037558491314
IRIDIUM 920             
1 24871U 97034C   25361.32302539  .00000635  00000+0  18858-3 0  9995
2 24871  86.3991 132.3974 0012370 155.5184 204.6606 14.41744137494402
